[{"OBJECT_NAME":"STARLINK-33844","OBJECT_ID":"2025-089T","EPOCH":"2026-03-09T23:19:29.208576","MEAN_MOTION":15.27581806,"ECCENTRICITY":9.797e-5,"INCLINATION":43.003,"RA_OF_ASC_NODE":43.3863,"ARG_OF_PERICENTER":243.0544,"MEAN_ANOMALY":117.0207,"EPHEMERIS_TYPE":0,"CLASSIFICATION_TYPE":"U","NORAD_CAT_ID":63768,"ELEMENT_SET_NO":999,"REV_AT_EPOCH":4900,"BSTAR":0.0013326153,"MEAN_MOTION_DOT":0.00036592,"MEAN_MOTION_DDOT":0},{"OBJECT_NAME":"KUIPER-00209","OBJECT_ID":"2026-030N","EPOCH":"2026-03-09T14:49:43.575744","MEAN_MOTION":15.3016195,"ECCENTRICITY":0.0012191,"INCLINATION":51.8838,"RA_OF_ASC_NODE":220.0775,"ARG_OF_PERICENTER":59.1967,"MEAN_ANOMALY":301.0215,"EPHEMERIS_TYPE":0,"CLASSIFICATION_TYPE":"U","NORAD_CAT_ID":67776,"ELEMENT_SET_NO":999,"REV_AT_EPOCH":507,"BSTAR":0.0011963,"MEAN_MOTION_DOT":0.00035298,"MEAN_MOTION_DDOT":0}]
