STARLINK-33844          
1 63768U 25089T   26068.97186583  .00036592  00000+0  13326-2 0  9994
2 63768  43.0030  43.3863 0000980 243.0544 117.0207 15.27581806 49002
KUIPER-00209            
1 67776U 26030N   26068.61786546  .00035298  00000+0  11963-2 0  9997
2 67776  51.8838 220.0775 0012191  59.1967 301.0215 15.30161950  5077
